{
  "norad_id": 58713,
  "name": "STARLINK-30973",
  "history": [
    {
      "epoch": "2026-03-28T09:56:41.662176Z",
      "apogee_km": 475.950308654591,
      "perigee_km": 474.5349486936775,
      "latitude_deg": 3.62437177804999e-05,
      "longitude_deg": 167.8490760825443,
      "height_km": 475.99751358394906,
      "semi_major_axis_km": 6853.379628674134,
      "eccentricity": 0.00010326,
      "inclination_deg": 53.1603,
      "raan_deg": 142.8578,
      "arg_perigee_deg": 78.2952,
      "mean_anomaly_deg": 281.8165,
      "mean_motion_rev_day": 15.3019077
    }
  ]
}